{
  "norad_id": 45417,
  "name": "STARLINK-1286",
  "history": [
    {
      "epoch": "2026-03-28T20:46:49.281024Z",
      "apogee_km": 412.58006557801036,
      "perigee_km": 407.3940745509626,
      "latitude_deg": 1.267523600923037e-05,
      "longitude_deg": -99.50378292131236,
      "height_km": 411.6528465601469,
      "semi_major_axis_km": 6788.124070064487,
      "eccentricity": 0.00038199,
      "inclination_deg": 53.0499,
      "raan_deg": 38.4817,
      "arg_perigee_deg": 107.3835,
      "mean_anomaly_deg": 252.7592,
      "mean_motion_rev_day": 15.52308747
    },
    {
      "epoch": "2026-03-29T02:57:39.830688Z",
      "apogee_km": 412.48945537771306,
      "perigee_km": 407.3373251315106,
      "latitude_deg": -7.341610263733571e-06,
      "longitude_deg": 166.29174584867778,
      "height_km": 411.6118571980635,
      "semi_major_axis_km": 6788.050390254612,
      "eccentricity": 0.0003795,
      "inclination_deg": 53.0497,
      "raan_deg": 37.2417,
      "arg_perigee_deg": 108.264,
      "mean_anomaly_deg": 251.8782,
      "mean_motion_rev_day": 15.52334021
    },
    {
      "epoch": "2026-03-30T02:08:15.843264Z",
      "apogee_km": 412.1972083900264,
      "perigee_km": 407.02901545480836,
      "latitude_deg": 7.07204898643553e-05,
      "longitude_deg": 173.03882036595658,
      "height_km": 411.43594551821093,
      "semi_major_axis_km": 6787.750111922417,
      "eccentricity": 0.0003807,
      "inclination_deg": 53.0497,
      "raan_deg": 32.5906,
      "arg_perigee_deg": 111.1313,
      "mean_anomaly_deg": 249.0104,
      "mean_motion_rev_day": 15.52437031
    },
    {
      "epoch": "2026-03-30T05:13:40.239840Z",
      "apogee_km": 412.15793014745213,
      "perigee_km": 406.9863745442799,
      "latitude_deg": -3.859983453773297e-06,
      "longitude_deg": 125.94010601365304,
      "height_km": 411.41605286161825,
      "semi_major_axis_km": 6787.709152345866,
      "eccentricity": 0.00038095,
      "inclination_deg": 53.0496,
      "raan_deg": 31.9705,
      "arg_perigee_deg": 111.6176,
      "mean_anomaly_deg": 248.5239,
      "mean_motion_rev_day": 15.52451083
    },
    {
      "epoch": "2026-03-30T12:57:10.806624Z",
      "apogee_km": 412.047874291472,
      "perigee_km": 406.89322936446206,
      "latitude_deg": 8.11493815873828e-05,
      "longitude_deg": 8.195147430267113,
      "height_km": 411.37983879076677,
      "semi_major_axis_km": 6787.607551827967,
      "eccentricity": 0.00037971,
      "inclination_deg": 53.0496,
      "raan_deg": 30.4201,
      "arg_perigee_deg": 113.2632,
      "mean_anomaly_deg": 246.8778,
      "mean_motion_rev_day": 15.5248594
    },
    {
      "epoch": "2026-03-31T19:51:07.532928Z",
      "apogee_km": 411.62372353233513,
      "perigee_km": 406.60387284199624,
      "latitude_deg": -1.536948347704344e-05,
      "longitude_deg": -102.76126323422857,
      "height_km": 411.1985272827789,
      "semi_major_axis_km": 6787.250798187165,
      "eccentricity": 0.0003698,
      "inclination_deg": 53.0497,
      "raan_deg": 24.2191,
      "arg_perigee_deg": 118.3774,
      "mean_anomaly_deg": 241.7608,
      "mean_motion_rev_day": 15.52608345
    },
    {
      "epoch": "2026-04-01T12:50:43.984320Z",
      "apogee_km": 411.4250513117431,
      "perigee_km": 406.4216304284537,
      "latitude_deg": 2.2882333580037916e-05,
      "longitude_deg": -1.7731110702887602,
      "height_km": 411.09133289362273,
      "semi_major_axis_km": 6787.060340870098,
      "eccentricity": 0.0003686,
      "inclination_deg": 53.0498,
      "raan_deg": 20.807,
      "arg_perigee_deg": 120.6675,
      "mean_anomaly_deg": 239.4698,
      "mean_motion_rev_day": 15.52673699
    },
    {
      "epoch": "2026-04-02T12:01:02.266752Z",
      "apogee_km": 411.1797613537037,
      "perigee_km": 406.10270829179717,
      "latitude_deg": 4.688738026887063e-05,
      "longitude_deg": 5.047601250194641,
      "height_km": 410.94777038771736,
      "semi_major_axis_km": 6786.77823482275,
      "eccentricity": 0.00037404,
      "inclination_deg": 53.0502,
      "raan_deg": 16.1555,
      "arg_perigee_deg": 123.8599,
      "mean_anomaly_deg": 236.2767,
      "mean_motion_rev_day": 15.5277051
    },
    {
      "epoch": "2026-04-02T22:49:48.623808Z",
      "apogee_km": 410.97967923133,
      "perigee_km": 405.9181077402509,
      "latitude_deg": 5.894436826962615e-06,
      "longitude_deg": -159.76085257484394,
      "height_km": 410.8149789771389,
      "semi_major_axis_km": 6786.58589348579,
      "eccentricity": 0.00037291,
      "inclination_deg": 53.0502,
      "raan_deg": 13.9843,
      "arg_perigee_deg": 125.6152,
      "mean_anomaly_deg": 234.5205,
      "mean_motion_rev_day": 15.52836522
    },
    {
      "epoch": "2026-04-03T18:54:36.736416Z",
      "apogee_km": 410.6635620577372,
      "perigee_km": 405.6715564239594,
      "latitude_deg": 3.489915862614968e-05,
      "longitude_deg": -105.81725768651377,
      "height_km": 410.6054851700215,
      "semi_major_axis_km": 6786.304559240848,
      "eccentricity": 0.0003678,
      "inclination_deg": 53.0501,
      "raan_deg": 9.953,
      "arg_perigee_deg": 128.2531,
      "mean_anomaly_deg": 231.881,
      "mean_motion_rev_day": 15.52933085
    },
    {
      "epoch": "2026-04-04T04:10:38.827200Z",
      "apogee_km": 410.5458063177048,
      "perigee_km": 405.4868647291387,
      "latitude_deg": -2.8448915360967323e-06,
      "longitude_deg": 112.93130997135657,
      "height_km": 410.57513394153824,
      "semi_major_axis_km": 6786.153335523421,
      "eccentricity": 0.00037274,
      "inclination_deg": 53.0501,
      "raan_deg": 8.0909,
      "arg_perigee_deg": 131.1984,
      "mean_anomaly_deg": 228.9347,
      "mean_motion_rev_day": 15.52984994
    },
    {
      "epoch": "2026-04-05T11:03:54.021888Z",
      "apogee_km": 409.75055823123057,
      "perigee_km": 404.76207277354024,
      "latitude_deg": -3.9405480618331035e-05,
      "longitude_deg": 2.146963041674421,
      "height_km": 409.8837797436698,
      "semi_major_axis_km": 6785.393315502385,
      "eccentricity": 0.00036759,
      "inclination_deg": 53.0498,
      "raan_deg": 1.8884,
      "arg_perigee_deg": 134.0567,
      "mean_anomaly_deg": 226.0745,
      "mean_motion_rev_day": 15.53245922
    },
    {
      "epoch": "2026-04-06T02:30:27.342432Z",
      "apogee_km": 410.07853334267384,
      "perigee_km": 404.24426236826184,
      "latitude_deg": 9.950019751850583e-07,
      "longitude_deg": 126.76725184017441,
      "height_km": 410.1645104709977,
      "semi_major_axis_km": 6785.298397855468,
      "eccentricity": 0.00042992,
      "inclination_deg": 53.0498,
      "raan_deg": 358.7817,
      "arg_perigee_deg": 136.3453,
      "mean_anomaly_deg": 223.7897,
      "mean_motion_rev_day": 15.53278514
    },
    {
      "epoch": "2026-04-07T00:07:34.715424Z",
      "apogee_km": 409.6694308939932,
      "perigee_km": 404.2463759414877,
      "latitude_deg": -6.2343969465950835e-06,
      "longitude_deg": 157.25677432993422,
      "height_km": 409.86731240995334,
      "semi_major_axis_km": 6785.09490341774,
      "eccentricity": 0.00039963,
      "inclination_deg": 53.0499,
      "raan_deg": 354.4398,
      "arg_perigee_deg": 138.0416,
      "mean_anomaly_deg": 222.09,
      "mean_motion_rev_day": 15.53348392
    }
  ]
}